{
  "type": "FeatureCollection",
  "features": [
    {
      "type": "Feature",
      "properties": {
        "norad_id": 30725,
        "name": "FENGYUN 1C DEB",
        "group": "fengyun-1c-debris",
        "lat": -58.48942355559206,
        "lon": 62.38133278702055,
        "alt_km": 870.4974052346452,
        "timestamp": "2025-12-04T15:47:54.376629+00:00",
        "meta_object_name": "FENGYUN 1C DEB",
        "meta_object_id": "1999-025ASK",
        "meta_epoch": "2025-12-03T16:55:42.398976",
        "meta_mean_motion": 14.16002295,
        "meta_eccentricity": 0.00878255,
        "meta_inclination": 99.0084,
        "meta_ra_of_asc_node": 46.4213,
        "meta_arg_of_pericenter": 56.3355,
        "meta_mean_anomaly": 70.0742,
        "meta_ephemeris_type": 0,
        "meta_classification_type": "U",
        "meta_norad_cat_id": 30725,
        "meta_element_set_no": 999,
        "meta_rev_at_epoch": 96220,
        "meta_bstar": 0.0017628258,
        "meta_mean_motion_dot": 3.566e-05,
        "meta_mean_motion_ddot": 0,
        "tle_line1": "1 30725U 99025ASK 25337.70535184  .00003566  00000+0  17628-2 0  9990",
        "tle_line2": "2 30725  99.0084  46.4213 0087825  56.3355  70.0742 14.16002295962205"
      },
      "geometry": {
        "type": "Point",
        "coordinates": [
          62.38133278702055,
          -58.48942355559206
        ]
      }
    },
    {
      "type": "Feature",
      "properties": {
        "norad_id": 30726,
        "name": "FENGYUN 1C DEB",
        "group": "fengyun-1c-debris",
        "lat": 10.194194337539447,
        "lon": 161.85908516149908,
        "alt_km": 852.5688611642263,
        "timestamp": "2025-12-04T15:47:54.376639+00:00",
        "meta_object_name": "FENGYUN 1C DEB",
        "meta_object_id": "1999-025ASL",
        "meta_epoch": "2025-11-29T12:53:39.035904",
        "meta_mean_motion": 14.09215956,
        "meta_eccentricity": 0.00781479,
        "meta_inclination": 99.2682,
        "meta_ra_of_asc_node": 334.9104,
        "meta_arg_of_pericenter": 263.1597,
        "meta_mean_anomaly": 221.508,
        "meta_ephemeris_type": 0,
        "meta_classification_type": "U",
        "meta_norad_cat_id": 30726,
        "meta_element_set_no": 999,
        "meta_rev_at_epoch": 95797,
        "meta_bstar": 0.0012898883,
        "meta_mean_motion_dot": 2.26e-05,
        "meta_mean_motion_ddot": 0,
        "tle_line1": "1 30726U 99025ASL 25333.53725736  .00002260  00000+0  12899-2 0  9997",
        "tle_line2": "2 30726  99.2682 334.9104 0078147 263.1597 221.5080 14.09215956957977"
      },
      "geometry": {
        "type": "Point",
        "coordinates": [
          161.85908516149908,
          10.194194337539447
        ]
      }
    },
    {
      "type": "Feature",
      "properties": {
        "norad_id": 30728,
        "name": "FENGYUN 1C DEB",
        "group": "fengyun-1c-debris",
        "lat": 25.339465898669115,
        "lon": -18.485311873834533,
        "alt_km": 799.0737455045764,
        "timestamp": "2025-12-04T15:47:54.376649+00:00",
        "meta_object_name": "FENGYUN 1C DEB",
        "meta_object_id": "1999-025ASN",
        "meta_epoch": "2025-12-04T07:14:36.028032",
        "meta_mean_motion": 14.2346956,
        "meta_eccentricity": 0.0099515,
        "meta_inclination": 98.5295,
        "meta_ra_of_asc_node": 345.2443,
        "meta_arg_of_pericenter": 106.2834,
        "meta_mean_anomaly": 254.9318,
        "meta_ephemeris_type": 0,
        "meta_classification_type": "U",
        "meta_norad_cat_id": 30728,
        "meta_element_set_no": 999,
        "meta_rev_at_epoch": 97569,
        "meta_bstar": 0.00013634876,
        "meta_mean_motion_dot": 2.85e-06,
        "meta_mean_motion_ddot": 0,
        "tle_line1": "1 30728U 99025ASN 25338.30180588  .00000285  00000+0  13635-3 0  9994",
        "tle_line2": "2 30728  98.5295 345.2443 0099515 106.2834 254.9318 14.23469560975696"
      },
      "geometry": {
        "type": "Point",
        "coordinates": [
          -18.485311873834533,
          25.339465898669115
        ]
      }
    },
    {
      "type": "Feature",
      "properties": {
        "norad_id": 30730,
        "name": "FENGYUN 1C DEB",
        "group": "fengyun-1c-debris",
        "lat": -80.99927212059005,
        "lon": 124.67171773560165,
        "alt_km": 869.1964663734825,
        "timestamp": "2025-12-04T15:47:54.376660+00:00",
        "meta_object_name": "FENGYUN 1C DEB",
        "meta_object_id": "1999-025ASQ",
        "meta_epoch": "2025-12-04T01:20:27.271680",
        "meta_mean_motion": 14.25413717,
        "meta_eccentricity": 0.00788309,
        "meta_inclination": 98.6192,
        "meta_ra_of_asc_node": 17.3282,
        "meta_arg_of_pericenter": 74.5183,
        "meta_mean_anomaly": 343.6766,
        "meta_ephemeris_type": 0,
        "meta_classification_type": "U",
        "meta_norad_cat_id": 30730,
        "meta_element_set_no": 999,
        "meta_rev_at_epoch": 96882,
        "meta_bstar": 0.0018887677,
        "meta_mean_motion_dot": 4.563e-05,
        "meta_mean_motion_ddot": 0,
        "tle_line1": "1 30730U 99025ASQ 25338.05587120  .00004563  00000+0  18888-2 0  9999",
        "tle_line2": "2 30730  98.6192  17.3282 0078830  74.5183 343.6766 14.25413717968820"
      },
      "geometry": {
        "type": "Point",
        "coordinates": [
          124.67171773560165,
          -80.99927212059005
        ]
      }
    },
    {
      "type": "Feature",
      "properties": {
        "norad_id": 30731,
        "name": "FENGYUN 1C DEB",
        "group": "fengyun-1c-debris",
        "lat": -35.90574142338661,
        "lon": 64.25257042462341,
        "alt_km": 753.7170018428978,
        "timestamp": "2025-12-04T15:47:54.376670+00:00",
        "meta_object_name": "FENGYUN 1C DEB",
        "meta_object_id": "1999-025ASR",
        "meta_epoch": "2025-12-04T04:37:23.765088",
        "meta_mean_motion": 14.4157125,
        "meta_eccentricity": 0.0014164,
        "meta_inclination": 98.8607,
        "meta_ra_of_asc_node": 57.2847,
        "meta_arg_of_pericenter": 270.1227,
        "meta_mean_anomaly": 158.3367,
        "meta_ephemeris_type": 0,
        "meta_classification_type": "U",
        "meta_norad_cat_id": 30731,
        "meta_element_set_no": 999,
        "meta_rev_at_epoch": 97233,
        "meta_bstar": 0.0050144354,
        "meta_mean_motion_dot": 0.00016317,
        "meta_mean_motion_ddot": 0,
        "tle_line1": "1 30731U 99025ASR 25338.19263617  .00016317  00000+0  50144-2 0  9998",
        "tle_line2": "2 30731  98.8607  57.2847 0014164 270.1227 158.3367 14.41571250972331"
      },
      "geometry": {
        "type": "Point",
        "coordinates": [
          64.25257042462341,
          -35.90574142338661
        ]
      }
    },
    {
      "type": "Feature",
      "properties": {
        "norad_id": 30732,
        "name": "FENGYUN 1C DEB",
        "group": "fengyun-1c-debris",
        "lat": 81.17652376691754,
        "lon": -87.77787303942348,
        "alt_km": 943.4194357464439,
        "timestamp": "2025-12-04T15:47:54.376680+00:00",
        "meta_object_name": "FENGYUN 1C DEB",
        "meta_object_id": "1999-025ASS",
        "meta_epoch": "2025-12-04T07:06:31.272192",
        "meta_mean_motion": 14.03882757,
        "meta_eccentricity": 0.01236048,
        "meta_inclination": 98.8045,
        "meta_ra_of_asc_node": 358.6719,
        "meta_arg_of_pericenter": 232.7431,
        "meta_mean_anomaly": 188.7449,
        "meta_ephemeris_type": 0,
        "meta_classification_type": "U",
        "meta_norad_cat_id": 30732,
        "meta_element_set_no": 999,
        "meta_rev_at_epoch": 96073,
        "meta_bstar": 0.00074251592,
        "meta_mean_motion_dot": 1.21e-05,
        "meta_mean_motion_ddot": 0,
        "tle_line1": "1 30732U 99025ASS 25338.29619528  .00001210  00000+0  74252-3 0  9999",
        "tle_line2": "2 30732  98.8045 358.6719 0123604 232.7431 188.7449 14.03882757960739"
      },
      "geometry": {
        "type": "Point",
        "coordinates": [
          -87.77787303942348,
          81.17652376691754
        ]
      }
    },
    {
      "type": "Feature",
      "properties": {
        "norad_id": 30735,
        "name": "FENGYUN 1C DEB",
        "group": "fengyun-1c-debris",
        "lat": 77.9199402491204,
        "lon": -84.11995316610263,
        "alt_km": 846.7259688719205,
        "timestamp": "2025-12-04T15:47:54.376693+00:00",
        "meta_object_name": "FENGYUN 1C DEB",
        "meta_object_id": "1999-025ASV",
        "meta_epoch": "2025-12-03T04:10:37.368768",
        "meta_mean_motion": 14.23845329,
        "meta_eccentricity": 0.00589255,
        "meta_inclination": 98.7657,
        "meta_ra_of_asc_node": 48.2686,
        "meta_arg_of_pericenter": 272.618,
        "meta_mean_anomaly": 142.1749,
        "meta_ephemeris_type": 0,
        "meta_classification_type": "U",
        "meta_norad_cat_id": 30735,
        "meta_element_set_no": 999,
        "meta_rev_at_epoch": 96612,
        "meta_bstar": 0.002233703,
        "meta_mean_motion_dot": 5.164e-05,
        "meta_mean_motion_ddot": 0,
        "tle_line1": "1 30735U 99025ASV 25337.17404362  .00005164  00000+0  22337-2 0  9994",
        "tle_line2": "2 30735  98.7657  48.2686 0058925 272.6180 142.1749 14.23845329966124"
      },
      "geometry": {
        "type": "Point",
        "coordinates": [
          -84.11995316610263,
          77.9199402491204
        ]
      }
    }
  ]
}